KUIPER-00016            
1 63732U 25088J   25243.47856671 -.00035129  00000+0 -45917-2 0  9993
2 63732  51.8984 232.7058 0010529 157.2982 202.8448 14.79990257 19164
KUIPER-00018            
1 63733U 25088K   25243.58335648 -.00046498  00000+0 -34385-2 0  9990
2 63733  51.8849 221.8821 0011263 170.5298 278.7868 15.02731840  3402
KUIPER-00019            
1 63734U 25088L   25243.58335648 -.00053000  00000+0 -41293-2 0  9994
2 63734  51.8846 220.7663 0007565 185.1837  95.6859 15.00853556  5082
KUIPER-00020            
1 63735U 25088M   25243.58335648 -.00079614  00000+0 -84014-2 0  9992
2 63735  51.8950 223.9371 0008504 157.2115 247.0656 14.89204539  4065
KUIPER-00021            
1 63736U 25088N   25243.58335648 -.01498719  00000+0 -17371+0 0  9994
2 63736  51.8930 224.8815 0006346 160.2804 254.4879 14.88362078  5419
KUIPER-00023            
1 63737U 25088P   25243.58335648 -.00041510  00000+0 -47445-2 0  9995
2 63737  51.8966 226.2639 0010749 182.5438 282.7212 14.85616705  5377
KUIPER-00024            
1 63738U 25088Q   25243.58335648 -.01462190  00000+0 -83764-1 0  9991
2 63738  51.8827 216.9706 0002734 128.1436 143.1655 15.15305155  4507
KUIPER-00025            
1 63739U 25088R   25243.58335648 -.01544875  00000+0 -16268+0 0  9996
2 63739  51.8934 222.5247 0009745 160.1934 211.5291 14.92244026  4675
